[{"OBJECT_NAME":"STARLINK-3929","OBJECT_ID":"2022-051AL","EPOCH":"2026-03-09T10:31:42.789216","MEAN_MOTION":15.08834949,"ECCENTRICITY":0.0001356,"INCLINATION":53.2165,"RA_OF_ASC_NODE":120.2471,"ARG_OF_PERICENTER":90.0271,"MEAN_ANOMALY":270.0877,"EPHEMERIS_TYPE":0,"CLASSIFICATION_TYPE":"U","NORAD_CAT_ID":52567,"ELEMENT_SET_NO":999,"REV_AT_EPOCH":21154,"BSTAR":-6.1348231e-5,"MEAN_MOTION_DOT":-1.264e-5,"MEAN_MOTION_DDOT":0},{"OBJECT_NAME":"ICON","OBJECT_ID":"2019-068A","EPOCH":"2026-03-09T22:35:01.599072","MEAN_MOTION":15.06276737,"ECCENTRICITY":0.00134076,"INCLINATION":26.9847,"RA_OF_ASC_NODE":325.9297,"ARG_OF_PERICENTER":187.0145,"MEAN_ANOMALY":173.0229,"EPHEMERIS_TYPE":0,"CLASSIFICATION_TYPE":"U","NORAD_CAT_ID":44628,"ELEMENT_SET_NO":999,"REV_AT_EPOCH":35105,"BSTAR":0.00030799545,"MEAN_MOTION_DOT":4.879e-5,"MEAN_MOTION_DDOT":0}]
